{"fetched_at":"2026-03-30T06:02:59Z","count":15439,"tles":[{"name":"STARLINK-30344","line1":"1 57737U 23131F   26087.65139124  .00006364  00000+0  45161-3 0  9991","line2":"2 57737  43.0021  68.1579 0001124 257.3227 102.7491 15.05295922142789","category":"Starlink"}]}