{
  "norad_id": 57737,
  "name": "STARLINK-30344",
  "history": [
    {
      "epoch": "2026-03-28T15:38:00.203136Z",
      "apogee_km": 551.3768794297521,
      "perigee_km": 549.8180527495715,
      "latitude_deg": 2.7263363350220544e-05,
      "longitude_deg": 7.5883063412286385,
      "height_km": 550.547375311035,
      "semi_major_axis_km": 6928.7344660896615,
      "eccentricity": 0.00011249,
      "inclination_deg": 43.0021,
      "raan_deg": 68.1579,
      "arg_perigee_deg": 257.3227,
      "mean_anomaly_deg": 102.7491,
      "mean_motion_rev_day": 15.05295922
    }
  ]
}